{
  "type": "FeatureCollection",
  "features": [
    {
      "type": "Feature",
      "properties": {
        "norad_id": 66829,
        "name": "STARLINK-36084",
        "group": "last-30-days",
        "lat": 65.08779413400022,
        "lon": -49.34755870528068,
        "alt_km": 391.2361389743455,
        "timestamp": "2025-12-18T14:52:06.781931+00:00",
        "meta_object_name": "STARLINK-36084",
        "meta_object_id": "2025-280J",
        "meta_epoch": "2025-12-18T06:00:02.999808",
        "meta_mean_motion": 15.5874398,
        "meta_eccentricity": 0.00032752,
        "meta_inclination": 69.9991,
        "meta_ra_of_asc_node": 183.3257,
        "meta_arg_of_pericenter": 270.8373,
        "meta_mean_anomaly": 282.6428,
        "meta_ephemeris_type": 0,
        "meta_classification_type": "U",
        "meta_norad_cat_id": 66829,
        "meta_element_set_no": 999,
        "meta_rev_at_epoch": 362,
        "meta_bstar": -0.029642733,
        "meta_mean_motion_dot": -0.02012567,
        "meta_mean_motion_ddot": 0,
        "tle_line1": "1 66829U 25280J   25352.25003472 -.02012567  00000+0 -29643-1 0  9997",
        "tle_line2": "2 66829  69.9991 183.3257 0003275 270.8373 282.6428 15.58743980  3625"
      },
      "geometry": {
        "type": "Point",
        "coordinates": [
          -49.34755870528068,
          65.08779413400022
        ]
      }
    },
    {
      "type": "Feature",
      "properties": {
        "norad_id": 66830,
        "name": "STARLINK-35881",
        "group": "last-30-days",
        "lat": 62.69060084065043,
        "lon": -42.537599067070374,
        "alt_km": 391.5870043493769,
        "timestamp": "2025-12-18T14:52:06.781941+00:00",
        "meta_object_name": "STARLINK-35881",
        "meta_object_id": "2025-280K",
        "meta_epoch": "2025-12-18T06:00:02.999808",
        "meta_mean_motion": 15.58760785,
        "meta_eccentricity": 0.0003389,
        "meta_inclination": 70.0071,
        "meta_ra_of_asc_node": 183.322,
        "meta_arg_of_pericenter": 273.1281,
        "meta_mean_anomaly": 284.1813,
        "meta_ephemeris_type": 0,
        "meta_classification_type": "U",
        "meta_norad_cat_id": 66830,
        "meta_element_set_no": 999,
        "meta_rev_at_epoch": 378,
        "meta_bstar": -0.030205077,
        "meta_mean_motion_dot": -0.02047165,
        "meta_mean_motion_ddot": 0,
        "tle_line1": "1 66830U 25280K   25352.25003472 -.02047165  00000+0 -30205-1 0  9997",
        "tle_line2": "2 66830  70.0071 183.3220 0003389 273.1281 284.1813 15.58760785  3783"
      },
      "geometry": {
        "type": "Point",
        "coordinates": [
          -42.537599067070374,
          62.69060084065043
        ]
      }
    },
    {
      "type": "Feature",
      "properties": {
        "norad_id": 66831,
        "name": "STARLINK-35788",
        "group": "last-30-days",
        "lat": 61.37987714546976,
        "lon": -39.55249462476562,
        "alt_km": 391.73073378490244,
        "timestamp": "2025-12-18T14:52:06.781951+00:00",
        "meta_object_name": "STARLINK-35788",
        "meta_object_id": "2025-280L",
        "meta_epoch": "2025-12-18T06:00:02.999808",
        "meta_mean_motion": 15.58756949,
        "meta_eccentricity": 0.00034095,
        "meta_inclination": 70.0071,
        "meta_ra_of_asc_node": 183.3209,
        "meta_arg_of_pericenter": 274.665,
        "meta_mean_anomaly": 284.5593,
        "meta_ephemeris_type": 0,
        "meta_classification_type": "U",
        "meta_norad_cat_id": 66831,
        "meta_element_set_no": 999,
        "meta_rev_at_epoch": 378,
        "meta_bstar": -0.030081373,
        "meta_mean_motion_dot": -0.02039597,
        "meta_mean_motion_ddot": 0,
        "tle_line1": "1 66831U 25280L   25352.25003472 -.02039597  00000+0 -30081-1 0  9990",
        "tle_line2": "2 66831  70.0071 183.3209 0003409 274.6650 284.5593 15.58756949  3786"
      },
      "geometry": {
        "type": "Point",
        "coordinates": [
          -39.55249462476562,
          61.37987714546976
        ]
      }
    },
    {
      "type": "Feature",
      "properties": {
        "norad_id": 66832,
        "name": "STARLINK-35768",
        "group": "last-30-days",
        "lat": 60.00837440481166,
        "lon": -36.81412284933114,
        "alt_km": 391.8345259663356,
        "timestamp": "2025-12-18T14:52:06.781961+00:00",
        "meta_object_name": "STARLINK-35768",
        "meta_object_id": "2025-280M",
        "meta_epoch": "2025-12-18T06:00:02.999808",
        "meta_mean_motion": 15.5875764,
        "meta_eccentricity": 0.00033886,
        "meta_inclination": 70.007,
        "meta_ra_of_asc_node": 183.3176,
        "meta_arg_of_pericenter": 273.7742,
        "meta_mean_anomaly": 287.3661,
        "meta_ephemeris_type": 0,
        "meta_classification_type": "U",
        "meta_norad_cat_id": 66832,
        "meta_element_set_no": 999,
        "meta_rev_at_epoch": 378,
        "meta_bstar": -0.030082961,
        "meta_mean_motion_dot": -0.02039718,
        "meta_mean_motion_ddot": 0,
        "tle_line1": "1 66832U 25280M   25352.25003472 -.02039718  00000+0 -30083-1 0  9998",
        "tle_line2": "2 66832  70.0070 183.3176 0003388 273.7742 287.3661 15.58757640  3783"
      },
      "geometry": {
        "type": "Point",
        "coordinates": [
          -36.81412284933114,
          60.00837440481166
        ]
      }
    },
    {
      "type": "Feature",
      "properties": {
        "norad_id": 66833,
        "name": "STARLINK-35858",
        "group": "last-30-days",
        "lat": 58.584751933001684,
        "lon": -34.2964022041549,
        "alt_km": 391.9276512269853,
        "timestamp": "2025-12-18T14:52:06.781971+00:00",
        "meta_object_name": "STARLINK-35858",
        "meta_object_id": "2025-280N",
        "meta_epoch": "2025-12-18T06:00:02.999808",
        "meta_mean_motion": 15.5875752,
        "meta_eccentricity": 0.00033495,
        "meta_inclination": 70.007,
        "meta_ra_of_asc_node": 183.3159,
        "meta_arg_of_pericenter": 272.3581,
        "meta_mean_anomaly": 290.6995,
        "meta_ephemeris_type": 0,
        "meta_classification_type": "U",
        "meta_norad_cat_id": 66833,
        "meta_element_set_no": 999,
        "meta_rev_at_epoch": 378,
        "meta_bstar": -0.030087483,
        "meta_mean_motion_dot": -0.02039942,
        "meta_mean_motion_ddot": 0,
        "tle_line1": "1 66833U 25280N   25352.25003472 -.02039942  00000+0 -30087-1 0  9992",
        "tle_line2": "2 66833  70.0070 183.3159 0003349 272.3581 290.6995 15.58757520  3782"
      },
      "geometry": {
        "type": "Point",
        "coordinates": [
          -34.2964022041549,
          58.584751933001684
        ]
      }
    },
    {
      "type": "Feature",
      "properties": {
        "norad_id": 66834,
        "name": "STARLINK-35840",
        "group": "last-30-days",
        "lat": 57.1160940449597,
        "lon": -31.98068705384076,
        "alt_km": 392.07233093006926,
        "timestamp": "2025-12-18T14:52:06.781980+00:00",
        "meta_object_name": "STARLINK-35840",
        "meta_object_id": "2025-280P",
        "meta_epoch": "2025-12-18T06:00:02.999808",
        "meta_mean_motion": 15.58757676,
        "meta_eccentricity": 0.00033681,
        "meta_inclination": 70.007,
        "meta_ra_of_asc_node": 183.3127,
        "meta_arg_of_pericenter": 271.4511,
        "meta_mean_anomaly": 293.5232,
        "meta_ephemeris_type": 0,
        "meta_classification_type": "U",
        "meta_norad_cat_id": 66834,
        "meta_element_set_no": 999,
        "meta_rev_at_epoch": 378,
        "meta_bstar": -0.030099407,
        "meta_mean_motion_dot": -0.02040676,
        "meta_mean_motion_ddot": 0,
        "tle_line1": "1 66834U 25280P   25352.25003472 -.02040676  00000+0 -30099-1 0  9992",
        "tle_line2": "2 66834  70.0070 183.3127 0003368 271.4511 293.5232 15.58757676  3780"
      },
      "geometry": {
        "type": "Point",
        "coordinates": [
          -31.98068705384076,
          57.1160940449597
        ]
      }
    },
    {
      "type": "Feature",
      "properties": {
        "norad_id": 66835,
        "name": "STARLINK-35890",
        "group": "last-30-days",
        "lat": 55.607197741611415,
        "lon": -29.842127010533464,
        "alt_km": 392.1956715593942,
        "timestamp": "2025-12-18T14:52:06.781992+00:00",
        "meta_object_name": "STARLINK-35890",
        "meta_object_id": "2025-280Q",
        "meta_epoch": "2025-12-18T06:00:02.999808",
        "meta_mean_motion": 15.58761812,
        "meta_eccentricity": 0.00033289,
        "meta_inclination": 70.007,
        "meta_ra_of_asc_node": 183.3105,
        "meta_arg_of_pericenter": 270.9178,
        "meta_mean_anomaly": 295.9715,
        "meta_ephemeris_type": 0,
        "meta_classification_type": "U",
        "meta_norad_cat_id": 66835,
        "meta_element_set_no": 999,
        "meta_rev_at_epoch": 378,
        "meta_bstar": -0.030194903,
        "meta_mean_motion_dot": -0.02046577,
        "meta_mean_motion_ddot": 0,
        "tle_line1": "1 66835U 25280Q   25352.25003472 -.02046577  00000+0 -30195-1 0  9996",
        "tle_line2": "2 66835  70.0070 183.3105 0003328 270.9178 295.9715 15.58761812  3785"
      },
      "geometry": {
        "type": "Point",
        "coordinates": [
          -29.842127010533464,
          55.607197741611415
        ]
      }
    }
  ]
}